XRISM                   
1 57800U 23137A   24271.57221989  .00011549  00000+0  83096-3 0  9993
2 57800  31.0031  80.1081 0009027 140.2155 219.9144 15.02998903 58014
